KUIPER-00178            
1 67767U 26030D   26057.63489281  .00030565  00000+0  89401-3 0  9998
2 67767  51.8835 272.4771 0005544  20.6365 339.4844 15.34991729  3395
KUIPER-00180            
1 67768U 26030E   26057.58769158  .00036029  00000+0  11280-2 0  9997
2 67768  51.8827 272.8998 0014737  39.0089 321.1956 15.32667568  3383
KUIPER-00197            
1 67769U 26030F   26057.62694747  .00036921  00000+0  10478-2 0  9993
2 67769  51.8832 272.4257 0001378  73.3375 286.7763 15.35856804  3399
KUIPER-00198            
1 67770U 26030G   26057.63023897  .00020840  00000+0  60433-3 0  9998
2 67770  51.8810 272.4437 0002725  29.5753 330.5386 15.35492920  3391
KUIPER-00199            
1 67771U 26030H   26057.57958859  .00033663  00000+0  10169-2 0  9994
2 67771  51.8820 272.8491 0010462  30.0167 330.1416 15.33889670  3389
KUIPER-00200            
1 67772U 26030J   26057.62144485  .00024050  00000+0  67410-3 0  9995
2 67772  51.8807 272.3879 0002105 171.5726 188.5296 15.36470379  3394
KUIPER-00203            
1 67773U 26030K   26057.58212591  .00027210  00000+0  83173-3 0  9990
2 67773  51.8813 272.8623 0012191  31.4131 328.7580 15.33605878  3388
KUIPER-00205            
1 67774U 26030L   26057.62761932  .00037427  00000+0  10626-2 0  9997
2 67774  51.8804 272.4275 0001903 358.9297   1.1685 15.35836299  3391
KUIPER-00208            
1 67775U 26030M   26057.58695525  .00028876  00000+0  90161-3 0  9998
2 67775  51.8849 272.9025 0014915  30.3439 329.8407 15.32862747  3380
KUIPER-00209            
1 67776U 26030N   26057.58673071  .00008633  00000+0  28376-3 0  9999
2 67776  51.8847 272.8986 0012394  30.6502 329.5205 15.32288845  3381
KUIPER-00213            
1 67777U 26030P   26057.58646403  .00044169  00000+0  13812-2 0  9991
2 67777  51.8827 272.8916 0013915  33.0156 327.1695 15.32619991  3382
KUIPER-00214            
1 67778U 26030Q   26057.62306162  .00037986  00000+0  10636-2 0  9992
2 67778  51.8833 272.4014 0001764 158.3164 201.7897 15.36263007  3393
