CCSDS_OMM_VERS = 2.0
CREATION_DATE  = 
ORIGINATOR     = 

OBJECT_NAME    = KUIPER-00178
OBJECT_ID      = 2026-030D
CENTER_NAME    = EARTH
REF_FRAME      = TEME
TIME_SYSTEM    = UTC
MEAN_ELEMENT_THEORY = SGP/SGP4

EPOCH          = 2026-02-26T15:14:14.738784
MEAN_MOTION    = 15.34991729
ECCENTRICITY   = .00055442
INCLINATION    = 51.8835
RA_OF_ASC_NODE = 272.4771
ARG_OF_PERICENTER = 20.6365
MEAN_ANOMALY   = 339.4844

EPHEMERIS_TYPE = 0
CLASSIFICATION_TYPE = U
NORAD_CAT_ID   = 67767
ELEMENT_SET_NO = 999
REV_AT_EPOCH   = 339
BSTAR          = .89401019E-3
MEAN_MOTION_DOT = .30565E-3
MEAN_MOTION_DDOT = 0

CCSDS_OMM_VERS = 2.0
CREATION_DATE  = 
ORIGINATOR     = 

OBJECT_NAME    = KUIPER-00180
OBJECT_ID      = 2026-030E
CENTER_NAME    = EARTH
REF_FRAME      = TEME
TIME_SYSTEM    = UTC
MEAN_ELEMENT_THEORY = SGP/SGP4

EPOCH          = 2026-02-26T14:06:16.552512
MEAN_MOTION    = 15.32667568
ECCENTRICITY   = .00147375
INCLINATION    = 51.8827
RA_OF_ASC_NODE = 272.8998
ARG_OF_PERICENTER = 39.0089
MEAN_ANOMALY   = 321.1956

EPHEMERIS_TYPE = 0
CLASSIFICATION_TYPE = U
NORAD_CAT_ID   = 67768
ELEMENT_SET_NO = 999
REV_AT_EPOCH   = 338
BSTAR          = .11279791E-2
MEAN_MOTION_DOT = .36029E-3
MEAN_MOTION_DDOT = 0

CCSDS_OMM_VERS = 2.0
CREATION_DATE  = 
ORIGINATOR     = 

OBJECT_NAME    = KUIPER-00197
OBJECT_ID      = 2026-030F
CENTER_NAME    = EARTH
REF_FRAME      = TEME
TIME_SYSTEM    = UTC
MEAN_ELEMENT_THEORY = SGP/SGP4

EPOCH          = 2026-02-26T15:02:48.261408
MEAN_MOTION    = 15.35856804
ECCENTRICITY   = .0001378
INCLINATION    = 51.8832
RA_OF_ASC_NODE = 272.4257
ARG_OF_PERICENTER = 73.3375
MEAN_ANOMALY   = 286.7763

EPHEMERIS_TYPE = 0
CLASSIFICATION_TYPE = U
NORAD_CAT_ID   = 67769
ELEMENT_SET_NO = 999
REV_AT_EPOCH   = 339
BSTAR          = .10477979E-2
MEAN_MOTION_DOT = .36921E-3
MEAN_MOTION_DDOT = 0

CCSDS_OMM_VERS = 2.0
CREATION_DATE  = 
ORIGINATOR     = 

OBJECT_NAME    = KUIPER-00198
OBJECT_ID      = 2026-030G
CENTER_NAME    = EARTH
REF_FRAME      = TEME
TIME_SYSTEM    = UTC
MEAN_ELEMENT_THEORY = SGP/SGP4

EPOCH          = 2026-02-26T15:07:32.647008
MEAN_MOTION    = 15.35492920
ECCENTRICITY   = .00027259
INCLINATION    = 51.8810
RA_OF_ASC_NODE = 272.4437
ARG_OF_PERICENTER = 29.5753
MEAN_ANOMALY   = 330.5386

EPHEMERIS_TYPE = 0
CLASSIFICATION_TYPE = U
NORAD_CAT_ID   = 67770
ELEMENT_SET_NO = 999
REV_AT_EPOCH   = 339
BSTAR          = .60432891E-3
MEAN_MOTION_DOT = .2084E-3
MEAN_MOTION_DDOT = 0

CCSDS_OMM_VERS = 2.0
CREATION_DATE  = 
ORIGINATOR     = 

OBJECT_NAME    = KUIPER-00199
OBJECT_ID      = 2026-030H
CENTER_NAME    = EARTH
REF_FRAME      = TEME
TIME_SYSTEM    = UTC
MEAN_ELEMENT_THEORY = SGP/SGP4

EPOCH          = 2026-02-26T13:54:36.454176
MEAN_MOTION    = 15.33889670
ECCENTRICITY   = .00104623
INCLINATION    = 51.8820
RA_OF_ASC_NODE = 272.8491
ARG_OF_PERICENTER = 30.0167
MEAN_ANOMALY   = 330.1416

EPHEMERIS_TYPE = 0
CLASSIFICATION_TYPE = U
NORAD_CAT_ID   = 67771
ELEMENT_SET_NO = 999
REV_AT_EPOCH   = 338
BSTAR          = .10168533E-2
MEAN_MOTION_DOT = .33663E-3
MEAN_MOTION_DDOT = 0

CCSDS_OMM_VERS = 2.0
CREATION_DATE  = 
ORIGINATOR     = 

OBJECT_NAME    = KUIPER-00200
OBJECT_ID      = 2026-030J
CENTER_NAME    = EARTH
REF_FRAME      = TEME
TIME_SYSTEM    = UTC
MEAN_ELEMENT_THEORY = SGP/SGP4

EPOCH          = 2026-02-26T14:54:52.835040
MEAN_MOTION    = 15.36470379
ECCENTRICITY   = .0002105
INCLINATION    = 51.8807
RA_OF_ASC_NODE = 272.3879
ARG_OF_PERICENTER = 171.5726
MEAN_ANOMALY   = 188.5296

EPHEMERIS_TYPE = 0
CLASSIFICATION_TYPE = U
NORAD_CAT_ID   = 67772
ELEMENT_SET_NO = 999
REV_AT_EPOCH   = 339
BSTAR          = .67410072E-3
MEAN_MOTION_DOT = .2405E-3
MEAN_MOTION_DDOT = 0

CCSDS_OMM_VERS = 2.0
CREATION_DATE  = 
ORIGINATOR     = 

OBJECT_NAME    = KUIPER-00203
OBJECT_ID      = 2026-030K
CENTER_NAME    = EARTH
REF_FRAME      = TEME
TIME_SYSTEM    = UTC
MEAN_ELEMENT_THEORY = SGP/SGP4

EPOCH          = 2026-02-26T13:58:15.678624
MEAN_MOTION    = 15.33605878
ECCENTRICITY   = .00121912
INCLINATION    = 51.8813
RA_OF_ASC_NODE = 272.8623
ARG_OF_PERICENTER = 31.4131
MEAN_ANOMALY   = 328.7580

EPHEMERIS_TYPE = 0
CLASSIFICATION_TYPE = U
NORAD_CAT_ID   = 67773
ELEMENT_SET_NO = 999
REV_AT_EPOCH   = 338
BSTAR          = .83172503E-3
MEAN_MOTION_DOT = .2721E-3
MEAN_MOTION_DDOT = 0

CCSDS_OMM_VERS = 2.0
CREATION_DATE  = 
ORIGINATOR     = 

OBJECT_NAME    = KUIPER-00205
OBJECT_ID      = 2026-030L
CENTER_NAME    = EARTH
REF_FRAME      = TEME
TIME_SYSTEM    = UTC
MEAN_ELEMENT_THEORY = SGP/SGP4

EPOCH          = 2026-02-26T15:03:46.309248
MEAN_MOTION    = 15.35836299
ECCENTRICITY   = .00019039
INCLINATION    = 51.8804
RA_OF_ASC_NODE = 272.4275
ARG_OF_PERICENTER = 358.9297
MEAN_ANOMALY   = 1.1685

EPHEMERIS_TYPE = 0
CLASSIFICATION_TYPE = U
NORAD_CAT_ID   = 67774
ELEMENT_SET_NO = 999
REV_AT_EPOCH   = 339
BSTAR          = .10626052E-2
MEAN_MOTION_DOT = .37427E-3
MEAN_MOTION_DDOT = 0

CCSDS_OMM_VERS = 2.0
CREATION_DATE  = 
ORIGINATOR     = 

OBJECT_NAME    = KUIPER-00208
OBJECT_ID      = 2026-030M
CENTER_NAME    = EARTH
REF_FRAME      = TEME
TIME_SYSTEM    = UTC
MEAN_ELEMENT_THEORY = SGP/SGP4

EPOCH          = 2026-02-26T14:05:12.933600
MEAN_MOTION    = 15.32862747
ECCENTRICITY   = .00149158
INCLINATION    = 51.8849
RA_OF_ASC_NODE = 272.9025
ARG_OF_PERICENTER = 30.3439
MEAN_ANOMALY   = 329.8407

EPHEMERIS_TYPE = 0
CLASSIFICATION_TYPE = U
NORAD_CAT_ID   = 67775
ELEMENT_SET_NO = 999
REV_AT_EPOCH   = 338
BSTAR          = .90161247E-3
MEAN_MOTION_DOT = .28876E-3
MEAN_MOTION_DDOT = 0

CCSDS_OMM_VERS = 2.0
CREATION_DATE  = 
ORIGINATOR     = 

OBJECT_NAME    = KUIPER-00209
OBJECT_ID      = 2026-030N
CENTER_NAME    = EARTH
REF_FRAME      = TEME
TIME_SYSTEM    = UTC
MEAN_ELEMENT_THEORY = SGP/SGP4

EPOCH          = 2026-02-26T14:04:53.533344
MEAN_MOTION    = 15.32288845
ECCENTRICITY   = .0012394
INCLINATION    = 51.8847
RA_OF_ASC_NODE = 272.8986
ARG_OF_PERICENTER = 30.6502
MEAN_ANOMALY   = 329.5205

EPHEMERIS_TYPE = 0
CLASSIFICATION_TYPE = U
NORAD_CAT_ID   = 67776
ELEMENT_SET_NO = 999
REV_AT_EPOCH   = 338
BSTAR          = .28376028E-3
MEAN_MOTION_DOT = .8633E-4
MEAN_MOTION_DDOT = 0

CCSDS_OMM_VERS = 2.0
CREATION_DATE  = 
ORIGINATOR     = 

OBJECT_NAME    = KUIPER-00213
OBJECT_ID      = 2026-030P
CENTER_NAME    = EARTH
REF_FRAME      = TEME
TIME_SYSTEM    = UTC
MEAN_ELEMENT_THEORY = SGP/SGP4

EPOCH          = 2026-02-26T14:04:30.492192
MEAN_MOTION    = 15.32619991
ECCENTRICITY   = .00139155
INCLINATION    = 51.8827
RA_OF_ASC_NODE = 272.8916
ARG_OF_PERICENTER = 33.0156
MEAN_ANOMALY   = 327.1695

EPHEMERIS_TYPE = 0
CLASSIFICATION_TYPE = U
NORAD_CAT_ID   = 67777
ELEMENT_SET_NO = 999
REV_AT_EPOCH   = 338
BSTAR          = .13812434E-2
MEAN_MOTION_DOT = .44169E-3
MEAN_MOTION_DDOT = 0

CCSDS_OMM_VERS = 2.0
CREATION_DATE  = 
ORIGINATOR     = 

OBJECT_NAME    = KUIPER-00214
OBJECT_ID      = 2026-030Q
CENTER_NAME    = EARTH
REF_FRAME      = TEME
TIME_SYSTEM    = UTC
MEAN_ELEMENT_THEORY = SGP/SGP4

EPOCH          = 2026-02-26T14:57:12.523968
MEAN_MOTION    = 15.36263007
ECCENTRICITY   = .00017648
INCLINATION    = 51.8833
RA_OF_ASC_NODE = 272.4014
ARG_OF_PERICENTER = 158.3164
MEAN_ANOMALY   = 201.7897

EPHEMERIS_TYPE = 0
CLASSIFICATION_TYPE = U
NORAD_CAT_ID   = 67778
ELEMENT_SET_NO = 999
REV_AT_EPOCH   = 339
BSTAR          = .10636257E-2
MEAN_MOTION_DOT = .37986E-3
MEAN_MOTION_DDOT = 0

